<?xml version="1.0" encoding="UTF-8"?>
<ndm xmlns:xsi="http://www.w3.org/2001/XMLSchema-instance" xsi:noNamespaceSchemaLocation="https://sanaregistry.org/r/ndmxml_unqualified/ndmxml-2.0.0-master-2.0.xsd">
<omm id="CCSDS_OMM_VERS" version="2.0">
<header><CREATION_DATE/><ORIGINATOR/></header><body><segment><metadata><OBJECT_NAME>ORBCOMM FM115</OBJECT_NAME><OBJECT_ID>2015-081H</OBJECT_ID><CENTER_NAME>EARTH</CENTER_NAME><REF_FRAME>TEME</REF_FRAME><TIME_SYSTEM>UTC</TIME_SYSTEM><MEAN_ELEMENT_THEORY>SGP4</MEAN_ELEMENT_THEORY></metadata><data><meanElements><EPOCH>2024-08-10T21:36:08.080992</EPOCH><MEAN_MOTION>14.60992627</MEAN_MOTION><ECCENTRICITY>.0000181</ECCENTRICITY><INCLINATION>46.9983</INCLINATION><RA_OF_ASC_NODE>73.8259</RA_OF_ASC_NODE><ARG_OF_PERICENTER>135.9875</ARG_OF_PERICENTER><MEAN_ANOMALY>224.1026</MEAN_ANOMALY></meanElements><tleParameters><EPHEMERIS_TYPE>0</EPHEMERIS_TYPE><CLASSIFICATION_TYPE>U</CLASSIFICATION_TYPE><NORAD_CAT_ID>41186</NORAD_CAT_ID><ELEMENT_SET_NO>999</ELEMENT_SET_NO><REV_AT_EPOCH>46237</REV_AT_EPOCH><BSTAR>.65585E-3</BSTAR><MEAN_MOTION_DOT>.3076E-4</MEAN_MOTION_DOT><MEAN_MOTION_DDOT>0</MEAN_MOTION_DDOT></tleParameters></data></segment></body></omm>
<omm id="CCSDS_OMM_VERS" version="2.0">
<header><CREATION_DATE/><ORIGINATOR/></header><body><segment><metadata><OBJECT_NAME>ORBCOMM FM108</OBJECT_NAME><OBJECT_ID>2015-081J</OBJECT_ID><CENTER_NAME>EARTH</CENTER_NAME><REF_FRAME>TEME</REF_FRAME><TIME_SYSTEM>UTC</TIME_SYSTEM><MEAN_ELEMENT_THEORY>SGP4</MEAN_ELEMENT_THEORY></metadata><data><meanElements><EPOCH>2024-08-10T20:48:09.243360</EPOCH><MEAN_MOTION>14.56837573</MEAN_MOTION><ECCENTRICITY>.0002613</ECCENTRICITY><INCLINATION>47.0035</INCLINATION><RA_OF_ASC_NODE>131.2249</RA_OF_ASC_NODE><ARG_OF_PERICENTER>321.6655</ARG_OF_PERICENTER><MEAN_ANOMALY>38.4044</MEAN_ANOMALY></meanElements><tleParameters><EPHEMERIS_TYPE>0</EPHEMERIS_TYPE><CLASSIFICATION_TYPE>U</CLASSIFICATION_TYPE><NORAD_CAT_ID>41187</NORAD_CAT_ID><ELEMENT_SET_NO>999</ELEMENT_SET_NO><REV_AT_EPOCH>46152</REV_AT_EPOCH><BSTAR>.98546E-3</BSTAR><MEAN_MOTION_DOT>.4292E-4</MEAN_MOTION_DOT><MEAN_MOTION_DDOT>0</MEAN_MOTION_DDOT></tleParameters></data></segment></body></omm>
<omm id="CCSDS_OMM_VERS" version="2.0">
<header><CREATION_DATE/><ORIGINATOR/></header><body><segment><metadata><OBJECT_NAME>ORBCOMM FM117</OBJECT_NAME><OBJECT_ID>2015-081K</OBJECT_ID><CENTER_NAME>EARTH</CENTER_NAME><REF_FRAME>TEME</REF_FRAME><TIME_SYSTEM>UTC</TIME_SYSTEM><MEAN_ELEMENT_THEORY>SGP4</MEAN_ELEMENT_THEORY></metadata><data><meanElements><EPOCH>2024-08-10T21:37:51.056832</EPOCH><MEAN_MOTION>14.56824887</MEAN_MOTION><ECCENTRICITY>.0003235</ECCENTRICITY><INCLINATION>46.9996</INCLINATION><RA_OF_ASC_NODE>129.9253</RA_OF_ASC_NODE><ARG_OF_PERICENTER>333.8209</ARG_OF_PERICENTER><MEAN_ANOMALY>26.2512</MEAN_ANOMALY></meanElements><tleParameters><EPHEMERIS_TYPE>0</EPHEMERIS_TYPE><CLASSIFICATION_TYPE>U</CLASSIFICATION_TYPE><NORAD_CAT_ID>41188</NORAD_CAT_ID><ELEMENT_SET_NO>999</ELEMENT_SET_NO><REV_AT_EPOCH>46157</REV_AT_EPOCH><BSTAR>.99175E-3</BSTAR><MEAN_MOTION_DOT>.432E-4</MEAN_MOTION_DOT><MEAN_MOTION_DDOT>0</MEAN_MOTION_DDOT></tleParameters></data></segment></body></omm>
<omm id="CCSDS_OMM_VERS" version="2.0">
<header><CREATION_DATE/><ORIGINATOR/></header><body><segment><metadata><OBJECT_NAME>ORBCOMM FM116</OBJECT_NAME><OBJECT_ID>2015-081L</OBJECT_ID><CENTER_NAME>EARTH</CENTER_NAME><REF_FRAME>TEME</REF_FRAME><TIME_SYSTEM>UTC</TIME_SYSTEM><MEAN_ELEMENT_THEORY>SGP4</MEAN_ELEMENT_THEORY></metadata><data><meanElements><EPOCH>2024-08-10T08:11:11.361408</EPOCH><MEAN_MOTION>14.56811311</MEAN_MOTION><ECCENTRICITY>.0001781</ECCENTRICITY><INCLINATION>47.0004</INCLINATION><RA_OF_ASC_NODE>222.3842</RA_OF_ASC_NODE><ARG_OF_PERICENTER>27.0375</ARG_OF_PERICENTER><MEAN_ANOMALY>333.0603</MEAN_ANOMALY></meanElements><tleParameters><EPHEMERIS_TYPE>0</EPHEMERIS_TYPE><CLASSIFICATION_TYPE>U</CLASSIFICATION_TYPE><NORAD_CAT_ID>41189</NORAD_CAT_ID><ELEMENT_SET_NO>999</ELEMENT_SET_NO><REV_AT_EPOCH>46030</REV_AT_EPOCH><BSTAR>.3393E-3</BSTAR><MEAN_MOTION_DOT>.1366E-4</MEAN_MOTION_DOT><MEAN_MOTION_DDOT>0</MEAN_MOTION_DDOT></tleParameters></data></segment></body></omm>
</ndm>
