ORBCOMM FM115           
1 41186U 15081H   24223.90009353  .00003076  00000+0  65585-3 0  9994
2 41186  46.9983  73.8259 0000181 135.9875 224.1026 14.60992627462378
ORBCOMM FM108           
1 41187U 15081J   24223.86677365  .00004292  00000+0  98546-3 0  9998
2 41187  47.0035 131.2249 0002613 321.6655  38.4044 14.56837573461524
ORBCOMM FM117           
1 41188U 15081K   24223.90128538  .00004320  00000+0  99175-3 0  9998
2 41188  46.9996 129.9253 0003235 333.8209  26.2512 14.56824887461573
ORBCOMM FM116           
1 41189U 15081L   24223.34110372  .00001366  00000+0  33930-3 0  9998
2 41189  47.0004 222.3842 0001781  27.0375 333.0603 14.56811311460306
